NORAD_CAT_ID,OBJECT_NAME,OBJECT_TYPE,EPOCH,MEAN_MOTION,ECCENTRICITY,INCLINATION,RA_OF_ASC_NODE,ARG_OF_PERICENTER,MEAN_ANOMALY,BSTAR,MEAN_MOTION_DOT,MEAN_MOTION_DDOT,TLE_LINE0,TLE_LINE1,TLE_LINE2,SEMIMAJOR_AXIS,PERIOD,APOGEE,PERIGEE,DECAYED
53714.0,STARLINK-4688,PAYLOAD,2023-03-27 05:01:36,15.08845088,9.17e-05,53.218,30.3882,86.1917,273.918,0.00048939,7.51e-05,0.0,0 STARLINK-4688,1 53714U 22107Q   23086.20945041  .00007510  00000-0  48939-3 0  9995,2 53714  53.2180  30.3882 0000917  86.1917 273.9180 15.08845088 31500,6917.865,95.437,540.364,539.095,0.0
53714.0,STARLINK-4688,PAYLOAD,2023-03-27 06:36:59,15.0884897,8.22e-05,53.2171,30.0894,80.4975,279.611,0.00096133,0.00015048,0.0,0 STARLINK-4688,1 53714U 22107Q   23086.27569178  .00015048  00000-0  96133-3 0  9999,2 53714  53.2171  30.0894 0000822  80.4975 279.6110 15.08848970 31954,6917.853,95.437,540.287,539.149,0.0
53714.0,STARLINK-4688,PAYLOAD,2023-03-28 06:27:46,15.08861786,0.0001127,53.2165,25.6285,76.6451,283.4667,0.0009559,0.00014967,0.0,0 STARLINK-4688,1 53714U 22107Q   23087.26929111  .00014967  00000-0  95590-3 0  9991,2 53714  53.2165  25.6285 0001127  76.6451 283.4667 15.08861786 31664,6917.814,95.436,540.458,538.899,0.0
53714.0,STARLINK-4688,PAYLOAD,2023-03-28 19:10:51,15.08849647,0.0001192,53.2149,23.248,80.2388,279.8739,0.0010814,0.00016969,0.0,0 STARLINK-4688,1 53714U 22107Q   23087.79921128  .00016969  00000-0  10814-2 0  9998,2 53714  53.2149  23.2480 0001192  80.2388 279.8739 15.08849647 32188,6917.851,95.437,540.541,538.891,0.0
53714.0,STARLINK-4688,PAYLOAD,2023-03-28 23:57:01,15.08851142,0.0001253,53.2162,22.3574,78.6707,281.4426,0.00085945,0.00013421,0.0,0 STARLINK-4688,1 53714U 22107Q   23087.99793023  .00013421  00000-0  85945-3 0  9999,2 53714  53.2162  22.3574 0001253  78.6707 281.4426 15.08851142 31770,6917.846,95.437,540.578,538.845,0.0
53714.0,STARLINK-4688,PAYLOAD,2023-03-29 03:07:47,15.0886251,0.0001112,53.2163,21.7629,70.2409,289.8703,0.0013897,0.00021912,0.0,0 STARLINK-4688,1 53714U 22107Q   23088.13040861  .00021912  00000-0  13897-2 0  9991,2 53714  53.2163  21.7629 0001112  70.2409 289.8703 15.08862510 31799,6917.812,95.436,540.446,538.907,0.0
53714.0,STARLINK-4688,PAYLOAD,2023-03-30 01:23:11,15.08844569,0.0001148,53.2163,17.5987,95.4563,264.656,0.00079851,0.00012445,0.0,0 STARLINK-4688,1 53714U 22107Q   23089.05777279  .00012445  00000-0  79851-3 0  9997,2 53714  53.2163  17.5987 0001148  95.4563 264.6560 15.08844569 31930,6917.866,95.437,540.526,538.937,0.0
53714.0,STARLINK-4688,PAYLOAD,2023-03-30 12:30:53,15.08838396,0.0001113,53.2162,15.5176,82.7803,277.3315,0.00044867,6.86e-05,0.0,0 STARLINK-4688,1 53714U 22107Q   23089.52145565  .00006860  00000-0  44867-3 0  9999,2 53714  53.2162  15.5176 0001113  82.7803 277.3315 15.08838396 32004,6917.885,95.438,540.52,538.98,0.0
53714.0,STARLINK-4688,PAYLOAD,2023-04-01 04:15:32,15.08855202,0.000153,53.2168,8.0808,107.6368,252.4791,0.00052869,8.14e-05,0.0,0 STARLINK-4688,1 53714U 22107Q   23091.17745484  .00008140  00000-0  52869-3 0  9993,2 53714  53.2168   8.0808 0001530 107.6368 252.4791 15.08855202 32259,6917.834,95.437,540.757,538.64,0.0
53714.0,STARLINK-4688,PAYLOAD,2023-04-02 00:55:33,15.08832954,0.0001491,53.2178,4.2185,84.9235,275.1928,0.00019151,2.761e-05,0.0,0 STARLINK-4688,1 53714U 22107Q   23092.03858609  .00002761  00000-0  19151-3 0  9993,2 53714  53.2178   4.2185 0001491  84.9235 275.1928 15.08832954 32389,6917.902,95.438,540.798,538.735,0.0
53714.0,STARLINK-4688,PAYLOAD,2023-04-02 21:35:34,15.08851893,0.0001403,53.218,0.3552,87.2749,272.8404,0.00066771,0.00010358,0.0,0 STARLINK-4688,1 53714U 22107Q   23092.89970468  .00010358  00000-0  66771-3 0  9996,2 53714  53.2180   0.3552 0001403  87.2749 272.8404 15.08851893 32955,6917.844,95.437,540.68,538.738,0.0
53714.0,STARLINK-4688,PAYLOAD,2023-04-03 02:21:43,15.08869632,0.0001342,53.2179,359.4626,84.5895,275.525,0.0011733,0.00018449,0.0,0 STARLINK-4688,1 53714U 22107Q   23093.09842034  .00018449  00000-0  11733-2 0  9992,2 53714  53.2179 359.4626 0001342  84.5895 275.5250 15.08869632 32541,6917.79,95.436,540.583,538.726,0.0
53714.0,STARLINK-4688,PAYLOAD,2023-04-03 18:15:34,15.08848044,0.0001299,53.2176,356.4885,100.7632,259.3506,0.00021897,3.199e-05,0.0,0 STARLINK-4688,1 53714U 22107Q   23093.76082170  .00003199  00000-0  21897-3 0  9992,2 53714  53.2176 356.4885 0001299 100.7632 259.3506 15.08848044 32642,6917.856,95.437,540.619,538.822,0.0
53714.0,STARLINK-4688,PAYLOAD,2023-04-03 21:26:21,15.08850475,0.0001196,53.2179,355.8949,100.2594,259.8533,0.00038614,5.865e-05,0.0,0 STARLINK-4688,1 53714U 22107Q   23093.89330121  .00005865  00000-0  38614-3 0  9995,2 53714  53.2179 355.8949 0001196 100.2594 259.8533 15.08850475 33105,6917.848,95.437,540.541,538.886,0.0
53714.0,STARLINK-4688,PAYLOAD,2023-04-04 02:12:30,15.08856071,0.0001327,53.2177,355.0022,109.1804,250.9332,0.00068682,0.00010664,0.0,0 STARLINK-4688,1 53714U 22107Q   23094.09201961  .00010664  00000-0  68682-3 0  9998,2 53714  53.2177 355.0022 0001327 109.1804 250.9332 15.08856071 33135,6917.831,95.437,540.614,538.778,0.0
53714.0,STARLINK-4688,PAYLOAD,2023-04-04 21:17:08,15.0884272,0.0001523,53.2179,351.4355,114.2523,245.8628,0.00045263,6.923e-05,0.0,0 STARLINK-4688,1 53714U 22107Q   23094.88690400  .00006923  00000-0  45263-3 0  9998,2 53714  53.2179 351.4355 0001523 114.2523 245.8628 15.08842720 33259,6917.872,95.437,540.791,538.683,0.0
53714.0,STARLINK-4688,PAYLOAD,2023-04-05 02:03:17,15.08841407,0.0001282,53.2173,350.5405,99.0562,261.0575,0.00032415,4.875e-05,0.0,0 STARLINK-4688,1 53714U 22107Q   23095.08562443  .00004875  00000-0  32415-3 0  9995,2 53714  53.2173 350.5405 0001282  99.0562 261.0575 15.08841407 32840,6917.876,95.437,540.628,538.854,0.0
53714.0,STARLINK-4688,PAYLOAD,2023-04-05 21:07:55,15.08841519,0.0001253,53.2166,346.9729,117.0884,243.0236,0.00019412,2.803e-05,0.0,0 STARLINK-4688,1 53714U 22107Q   23095.88050409  .00002803  00000-0  19412-3 0  9998,2 53714  53.2166 346.9729 0001253 117.0884 243.0236 15.08841519 33407,6917.876,95.437,540.608,538.874,0.0
53714.0,STARLINK-4688,PAYLOAD,2023-04-06 01:54:04,15.08851102,0.0001196,53.2164,346.0786,100.3376,259.7751,0.00041475,6.321e-05,0.0,0 STARLINK-4688,1 53714U 22107Q   23096.07922164  .00006321  00000-0  41475-3 0  9999,2 53714  53.2164 346.0786 0001196 100.3376 259.7751 15.08851102 33434,6917.846,95.437,540.539,538.884,0.0
53714.0,STARLINK-4688,PAYLOAD,2023-04-06 22:34:06,15.08838811,0.0001366,53.2165,342.2133,84.8084,275.3064,0.00015682,2.209e-05,0.0,0 STARLINK-4688,1 53714U 22107Q   23096.94034777  .00002209  00000-0  15682-3 0  9991,2 53714  53.2165 342.2133 0001366  84.8084 275.3064 15.08838811 33129,6917.884,95.438,540.694,538.804,0.0
53714.0,STARLINK-4688,PAYLOAD,2023-04-08 01:35:39,15.08856508,0.0001232,53.2164,337.1587,84.2354,275.8779,0.0006013,9.299e-05,0.0,0 STARLINK-4688,1 53714U 22107Q   23098.06642365  .00009299  00000-0  60130-3 0  9998,2 53714  53.2164 337.1587 0001232  84.2354 275.8779 15.08856508 33299,6917.83,95.437,540.547,538.843,0.0
53714.0,STARLINK-4688,PAYLOAD,2023-04-09 01:26:26,15.08842546,0.000139,53.2168,332.6969,88.6293,271.4858,0.00026144,3.876e-05,0.0,0 STARLINK-4688,1 53714U 22107Q   23099.06002994  .00003876  00000-0  26144-3 0  9999,2 53714  53.2168 332.6969 0001390  88.6293 271.4858 15.08842546 33446,6917.873,95.437,540.699,538.776,0.0
53714.0,STARLINK-4688,PAYLOAD,2023-04-09 15:44:55,15.08835163,0.000149,53.2166,330.0227,89.3546,270.7617,0.00027655,4.115e-05,0.0,0 STARLINK-4688,1 53714U 22107Q   23099.65619476  .00004115  00000-0  27655-3 0  9998,2 53714  53.2166 330.0227 0001490  89.3546 270.7617 15.08835163 33973,6917.895,95.438,540.791,538.729,0.0
53714.0,STARLINK-4688,PAYLOAD,2023-04-09 20:31:04,15.08841295,0.0001426,53.2164,329.1305,88.2958,271.8198,0.00022374,3.275e-05,0.0,0 STARLINK-4688,1 53714U 22107Q   23099.85491316  .00003275  00000-0  22374-3 0  9990,2 53714  53.2164 329.1305 0001426  88.2958 271.8198 15.08841295 33565,6917.876,95.437,540.728,538.755,0.0
53714.0,STARLINK-4688,PAYLOAD,2023-04-10 01:17:13,15.08846204,0.0001456,53.2166,328.2377,89.6983,270.4176,0.00035578,5.38e-05,0.0,0 STARLINK-4688,1 53714U 22107Q   23100.05363183  .00005380  00000-0  35578-3 0  9994,2 53714  53.2166 328.2377 0001456  89.6983 270.4176 15.08846204 34031,6917.861,95.437,540.734,538.719,0.0
53714.0,STARLINK-4688,PAYLOAD,2023-04-10 21:57:14,15.08851106,0.0001509,53.2165,324.3719,91.5278,268.5887,0.00032622,4.909e-05,0.0,0 STARLINK-4688,1 53714U 22107Q   23100.91474847  .00004909  00000-0  32622-3 0  9992,2 53714  53.2165 324.3719 0001509  91.5278 268.5887 15.08851106 33724,6917.846,95.437,540.755,538.668,0.0
53714.0,STARLINK-4688,PAYLOAD,2023-04-10 23:32:37,15.08851287,0.0001496,53.2165,324.0745,91.203,268.9134,0.00030922,4.638e-05,0.0,0 STARLINK-4688,1 53714U 22107Q   23100.98098792  .00004638  00000-0  30922-3 0  9990,2 53714  53.2165 324.0745 0001496  91.2030 268.9134 15.08851287 34177,6917.846,95.437,540.746,538.676,0.0
53714.0,STARLINK-4688,PAYLOAD,2023-04-11 21:48:01,15.08836214,0.0001474,53.2167,319.9105,84.4021,275.714,-9.9326e-05,-1.868e-05,0.0,0 STARLINK-4688,1 53714U 22107Q   23101.90835148 -.00001868  00000-0 -99326-4 0  9995,2 53714  53.2167 319.9105 0001474  84.4021 275.7140 15.08836214 34314,6917.892,95.438,540.777,538.737,0.0
53714.0,STARLINK-4688,PAYLOAD,2023-04-12 00:58:47,15.08838422,0.0001169,53.2159,319.3162,93.1142,266.9984,1.6756e-06,-2.61e-06,0.0,0 STARLINK-4688,1 53714U 22107Q   23102.04083278 -.00000261  00000-0  16756-5 0  9992,2 53714  53.2159 319.3162 0001169  93.1142 266.9984 15.08838422 34337,6917.885,95.438,540.559,538.942,0.0
53714.0,STARLINK-4688,PAYLOAD,2023-04-13 08:46:30,15.08848643,0.0001082,53.2147,313.3689,95.4523,264.6593,-5.7134e-05,-1.197e-05,0.0,0 STARLINK-4688,1 53714U 22107Q   23103.36562745 -.00001197  00000-0 -57134-4 0  9993,2 53714  53.2147 313.3689 0001082  95.4523 264.6593 15.08848643 34533,6917.854,95.437,540.467,538.97,0.0
